ATLAS CENTAUR R/B       
1 06155U 72065B   25339.56378177  .00002279  00000+0  31527-3 0  9993
2 06155  35.0000 137.2322 0034532 298.0782  61.6429 14.77377409827330
SL-8 R/B                
1 08459U 75112B   25339.94390841  .00000511  00000+0  17680-3 0  9993
2 08459  74.0597 191.3581 0016481 303.4613  56.4965 14.38138486618396
SL-3 R/B                
1 10114U 77057B   25339.94592943  .00018021  00000+0  41433-3 0  9999
2 10114  97.5680 143.0107 0006387 261.4087  98.6436 15.42704854653866
SEASAT 1                
1 10967U 78064A   25339.76456791  .00000904  00000+0  29153-3 0  9990
2 10967 108.0103 288.4007 0001803 249.8913 110.2039 14.46049470492937
SL-14 R/B               
1 11267U 79011B   25339.94625218  .00001031  00000+0  99631-4 0  9990
2 11267  82.5241 185.4872 0016509  15.8711 344.3023 14.91757235514801
SL-8 R/B                
1 11574U 79089B   25339.90000884  .00000580  00000+0  18357-3 0  9991
2 11574  74.0692 264.6377 0014442 102.0299 258.2477 14.42276145422583
SL-14 R/B               
1 11672U 80005B   25339.89776656  .00001075  00000+0  10650-3 0  9993
2 11672  82.5155  36.1879 0017201 114.2642 246.0376 14.90779303462519
SL-8 R/B                
1 12139U 81003B   25339.56580909  .00024960  00000+0  66533-3 0  9998
2 12139  82.9285  16.8057 0280525 144.9606 217.0447 15.06727759300480
SL-3 R/B                
1 12465U 81046B   25339.93474488  .00016283  00000+0  41252-3 0  9992
2 12465  81.2337  42.0774 0019375 348.4353  11.6440 15.39400591423993
SL-3 R/B                
1 12904U 81103B   25339.94612228  .00009176  00000+0  42282-3 0  9998
2 12904  81.1586 323.3098 0011398 239.5234 120.4872 15.20107957958985
SL-3 R/B                
1 13068U 82013B   25339.93332471  .00007074  00000+0  31559-3 0  9999
2 13068  81.1757 270.5749 0023721 132.7349 227.5885 15.20990388390090
SL-3 R/B                
1 13154U 82039B   25339.94423319  .00005130  00000+0  31578-3 0  9998
2 13154  81.1726 323.9140 0030122 275.4002  84.3787 15.09461954367491
