CCSDS_OMM_VERS = 2.0
CREATION_DATE  = 
ORIGINATOR     = 

OBJECT_NAME    = ATLAS CENTAUR R/B
OBJECT_ID      = 1972-065B
CENTER_NAME    = EARTH
REF_FRAME      = TEME
TIME_SYSTEM    = UTC
MEAN_ELEMENT_THEORY = SGP/SGP4

EPOCH          = 2025-12-05T13:31:50.744928
MEAN_MOTION    = 14.77377409
ECCENTRICITY   = .00345324
INCLINATION    = 35.0000
RA_OF_ASC_NODE = 137.2322
ARG_OF_PERICENTER = 298.0782
MEAN_ANOMALY   = 61.6429

EPHEMERIS_TYPE = 0
CLASSIFICATION_TYPE = U
NORAD_CAT_ID   = 6155
ELEMENT_SET_NO = 999
REV_AT_EPOCH   = 82733
BSTAR          = .31526566E-3
MEAN_MOTION_DOT = .2279E-4
MEAN_MOTION_DDOT = 0

CCSDS_OMM_VERS = 2.0
CREATION_DATE  = 
ORIGINATOR     = 

OBJECT_NAME    = SL-8 R/B
OBJECT_ID      = 1975-112B
CENTER_NAME    = EARTH
REF_FRAME      = TEME
TIME_SYSTEM    = UTC
MEAN_ELEMENT_THEORY = SGP/SGP4

EPOCH          = 2025-12-05T22:39:13.686624
MEAN_MOTION    = 14.38138486
ECCENTRICITY   = .00164816
INCLINATION    = 74.0597
RA_OF_ASC_NODE = 191.3581
ARG_OF_PERICENTER = 303.4613
MEAN_ANOMALY   = 56.4965

EPHEMERIS_TYPE = 0
CLASSIFICATION_TYPE = U
NORAD_CAT_ID   = 8459
ELEMENT_SET_NO = 999
REV_AT_EPOCH   = 61839
BSTAR          = .17679525E-3
MEAN_MOTION_DOT = .511E-5
MEAN_MOTION_DDOT = 0

CCSDS_OMM_VERS = 2.0
CREATION_DATE  = 
ORIGINATOR     = 

OBJECT_NAME    = SL-3 R/B
OBJECT_ID      = 1977-057B
CENTER_NAME    = EARTH
REF_FRAME      = TEME
TIME_SYSTEM    = UTC
MEAN_ELEMENT_THEORY = SGP/SGP4

EPOCH          = 2025-12-05T22:42:08.302752
MEAN_MOTION    = 15.42704854
ECCENTRICITY   = .00063876
INCLINATION    = 97.5680
RA_OF_ASC_NODE = 143.0107
ARG_OF_PERICENTER = 261.4087
MEAN_ANOMALY   = 98.6436

EPHEMERIS_TYPE = 0
CLASSIFICATION_TYPE = U
NORAD_CAT_ID   = 10114
ELEMENT_SET_NO = 999
REV_AT_EPOCH   = 65386
BSTAR          = .41433402E-3
MEAN_MOTION_DOT = .18021E-3
MEAN_MOTION_DDOT = 0

CCSDS_OMM_VERS = 2.0
CREATION_DATE  = 
ORIGINATOR     = 

OBJECT_NAME    = SEASAT 1
OBJECT_ID      = 1978-064A
CENTER_NAME    = EARTH
REF_FRAME      = TEME
TIME_SYSTEM    = UTC
MEAN_ELEMENT_THEORY = SGP/SGP4

EPOCH          = 2025-12-05T18:20:58.667424
MEAN_MOTION    = 14.46049470
ECCENTRICITY   = .00018032
INCLINATION    = 108.0103
RA_OF_ASC_NODE = 288.4007
ARG_OF_PERICENTER = 249.8913
MEAN_ANOMALY   = 110.2039

EPHEMERIS_TYPE = 0
CLASSIFICATION_TYPE = U
NORAD_CAT_ID   = 10967
ELEMENT_SET_NO = 999
REV_AT_EPOCH   = 49293
BSTAR          = .29152813E-3
MEAN_MOTION_DOT = .904E-5
MEAN_MOTION_DDOT = 0

CCSDS_OMM_VERS = 2.0
CREATION_DATE  = 
ORIGINATOR     = 

OBJECT_NAME    = SL-14 R/B
OBJECT_ID      = 1979-011B
CENTER_NAME    = EARTH
REF_FRAME      = TEME
TIME_SYSTEM    = UTC
MEAN_ELEMENT_THEORY = SGP/SGP4

EPOCH          = 2025-12-05T22:42:36.188352
MEAN_MOTION    = 14.91757235
ECCENTRICITY   = .00165093
INCLINATION    = 82.5241
RA_OF_ASC_NODE = 185.4872
ARG_OF_PERICENTER = 15.8711
MEAN_ANOMALY   = 344.3023

EPHEMERIS_TYPE = 0
CLASSIFICATION_TYPE = U
NORAD_CAT_ID   = 11267
ELEMENT_SET_NO = 999
REV_AT_EPOCH   = 51480
BSTAR          = .99631245E-4
MEAN_MOTION_DOT = .1031E-4
MEAN_MOTION_DDOT = 0

CCSDS_OMM_VERS = 2.0
CREATION_DATE  = 
ORIGINATOR     = 

OBJECT_NAME    = SL-8 R/B
OBJECT_ID      = 1979-089B
CENTER_NAME    = EARTH
REF_FRAME      = TEME
TIME_SYSTEM    = UTC
MEAN_ELEMENT_THEORY = SGP/SGP4

EPOCH          = 2025-12-05T21:36:00.763776
MEAN_MOTION    = 14.42276145
ECCENTRICITY   = .00144423
INCLINATION    = 74.0692
RA_OF_ASC_NODE = 264.6377
ARG_OF_PERICENTER = 102.0299
MEAN_ANOMALY   = 258.2477

EPHEMERIS_TYPE = 0
CLASSIFICATION_TYPE = U
NORAD_CAT_ID   = 11574
ELEMENT_SET_NO = 999
REV_AT_EPOCH   = 42258
BSTAR          = .18356917E-3
MEAN_MOTION_DOT = .58E-5
MEAN_MOTION_DDOT = 0

CCSDS_OMM_VERS = 2.0
CREATION_DATE  = 
ORIGINATOR     = 

OBJECT_NAME    = SL-14 R/B
OBJECT_ID      = 1980-005B
CENTER_NAME    = EARTH
REF_FRAME      = TEME
TIME_SYSTEM    = UTC
MEAN_ELEMENT_THEORY = SGP/SGP4

EPOCH          = 2025-12-05T21:32:47.030784
MEAN_MOTION    = 14.90779303
ECCENTRICITY   = .00172013
INCLINATION    = 82.5155
RA_OF_ASC_NODE = 36.1879
ARG_OF_PERICENTER = 114.2642
MEAN_ANOMALY   = 246.0376

EPHEMERIS_TYPE = 0
CLASSIFICATION_TYPE = U
NORAD_CAT_ID   = 11672
ELEMENT_SET_NO = 999
REV_AT_EPOCH   = 46251
BSTAR          = .10650086E-3
MEAN_MOTION_DOT = .1075E-4
MEAN_MOTION_DDOT = 0

CCSDS_OMM_VERS = 2.0
CREATION_DATE  = 
ORIGINATOR     = 

OBJECT_NAME    = SL-8 R/B
OBJECT_ID      = 1981-003B
CENTER_NAME    = EARTH
REF_FRAME      = TEME
TIME_SYSTEM    = UTC
MEAN_ELEMENT_THEORY = SGP/SGP4

EPOCH          = 2025-12-05T13:34:45.905376
MEAN_MOTION    = 15.06727759
ECCENTRICITY   = .02805259
INCLINATION    = 82.9285
RA_OF_ASC_NODE = 16.8057
ARG_OF_PERICENTER = 144.9606
MEAN_ANOMALY   = 217.0447

EPHEMERIS_TYPE = 0
CLASSIFICATION_TYPE = U
NORAD_CAT_ID   = 12139
ELEMENT_SET_NO = 999
REV_AT_EPOCH   = 30048
BSTAR          = .66533112E-3
MEAN_MOTION_DOT = .2496E-3
MEAN_MOTION_DDOT = 0

CCSDS_OMM_VERS = 2.0
CREATION_DATE  = 
ORIGINATOR     = 

OBJECT_NAME    = SL-3 R/B
OBJECT_ID      = 1981-046B
CENTER_NAME    = EARTH
REF_FRAME      = TEME
TIME_SYSTEM    = UTC
MEAN_ELEMENT_THEORY = SGP/SGP4

EPOCH          = 2025-12-05T22:26:01.957632
MEAN_MOTION    = 15.39400591
ECCENTRICITY   = .00193759
INCLINATION    = 81.2337
RA_OF_ASC_NODE = 42.0774
ARG_OF_PERICENTER = 348.4353
MEAN_ANOMALY   = 11.6440

EPHEMERIS_TYPE = 0
CLASSIFICATION_TYPE = U
NORAD_CAT_ID   = 12465
ELEMENT_SET_NO = 999
REV_AT_EPOCH   = 42399
BSTAR          = .41251715E-3
MEAN_MOTION_DOT = .16283E-3
MEAN_MOTION_DDOT = 0

CCSDS_OMM_VERS = 2.0
CREATION_DATE  = 
ORIGINATOR     = 

OBJECT_NAME    = SL-3 R/B
OBJECT_ID      = 1981-103B
CENTER_NAME    = EARTH
REF_FRAME      = TEME
TIME_SYSTEM    = UTC
MEAN_ELEMENT_THEORY = SGP/SGP4

EPOCH          = 2025-12-05T22:42:24.964992
MEAN_MOTION    = 15.20107957
ECCENTRICITY   = .00113982
INCLINATION    = 81.1586
RA_OF_ASC_NODE = 323.3098
ARG_OF_PERICENTER = 239.5234
MEAN_ANOMALY   = 120.4872

EPHEMERIS_TYPE = 0
CLASSIFICATION_TYPE = U
NORAD_CAT_ID   = 12904
ELEMENT_SET_NO = 999
REV_AT_EPOCH   = 95898
BSTAR          = .4228161E-3
MEAN_MOTION_DOT = .9176E-4
MEAN_MOTION_DDOT = 0

CCSDS_OMM_VERS = 2.0
CREATION_DATE  = 
ORIGINATOR     = 

OBJECT_NAME    = SL-3 R/B
OBJECT_ID      = 1982-013B
CENTER_NAME    = EARTH
REF_FRAME      = TEME
TIME_SYSTEM    = UTC
MEAN_ELEMENT_THEORY = SGP/SGP4

EPOCH          = 2025-12-05T22:23:59.254944
MEAN_MOTION    = 15.20990388
ECCENTRICITY   = .00237219
INCLINATION    = 81.1757
RA_OF_ASC_NODE = 270.5749
ARG_OF_PERICENTER = 132.7349
MEAN_ANOMALY   = 227.5885

EPHEMERIS_TYPE = 0
CLASSIFICATION_TYPE = U
NORAD_CAT_ID   = 13068
ELEMENT_SET_NO = 999
REV_AT_EPOCH   = 39009
BSTAR          = .31559092E-3
MEAN_MOTION_DOT = .7074E-4
MEAN_MOTION_DDOT = 0

CCSDS_OMM_VERS = 2.0
CREATION_DATE  = 
ORIGINATOR     = 

OBJECT_NAME    = SL-3 R/B
OBJECT_ID      = 1982-039B
CENTER_NAME    = EARTH
REF_FRAME      = TEME
TIME_SYSTEM    = UTC
MEAN_ELEMENT_THEORY = SGP/SGP4

EPOCH          = 2025-12-05T22:39:41.747616
MEAN_MOTION    = 15.09461954
ECCENTRICITY   = .00301223
INCLINATION    = 81.1726
RA_OF_ASC_NODE = 323.9140
ARG_OF_PERICENTER = 275.4002
MEAN_ANOMALY   = 84.3787

EPHEMERIS_TYPE = 0
CLASSIFICATION_TYPE = U
NORAD_CAT_ID   = 13154
ELEMENT_SET_NO = 999
REV_AT_EPOCH   = 36749
BSTAR          = .31578143E-3
MEAN_MOTION_DOT = .513E-4
MEAN_MOTION_DDOT = 0

